STARLINK-3352           
1 51147U 22005AV  26083.13202091  .00031068  00000+0  12091-2 0  9996
2 51147  53.1941 230.2140 0000652 341.4360  18.6615 15.25767742230973
STARLINK-3359           
1 51148U 22005AW  26082.46822987  .00005231  00000+0  33859-3 0  9993
2 51148  53.2160 247.3875 0001281 142.2126 217.8957 15.09695396230674
STARLINK-3360           
1 51149U 22005AX  26082.33335648  .00044254  00000+0  27833-2 0  9995
2 51149  53.2150 247.6883 0001312  94.2786  70.1558 15.08812715  5705
STARLINK-3357           
1 51150U 22005AY  26082.70417506 -.00000341  00000+0 -33214-5 0  9996
2 51150  53.2164 235.8202 0001239  93.4463 266.6671 15.08841249230866
STARLINK-3364           
1 51152U 22005BA  26083.14119007  .00002057  00000+0  14731-3 0  9997
2 51152  53.2164 243.8609 0001289  91.6084 268.5056 15.08834368230785
STARLINK-3181           
1 51461U 22010F   26083.07774401  .00000833  00000+0  70389-4 0  9995
2 51461  53.2174 214.5303 0001375  88.8219 271.2931 15.08843418228998
STARLINK-3166           
1 51462U 22010G   26083.07502599  .00000102  00000+0  24516-4 0  9993
2 51462  53.2176 214.5516 0001276  90.3076 269.8063 15.08846462228997
STARLINK-3419           
1 51463U 22010H   26082.78334399 -.00000824  00000+0 -33715-4 0  9996
2 51463  53.2176 215.8531 0001129  90.1110 270.0011 15.08835185228642
STARLINK-3189           
1 51464U 22010J   26083.06670696  .00000137  00000+0  26677-4 0  9996
2 51464  53.2170 214.5797 0001233  91.9261 268.1872 15.08840133229495
STARLINK-3401           
1 51465U 22010K   26083.06303123 -.00000298  00000+0 -65430-6 0  9997
2 51465  53.2182 214.5959 0001205  89.3407 270.7723 15.08840779229491
STARLINK-3178           
1 51467U 22010M   26082.77965041 -.00001356  00000+0 -67107-4 0  9996
2 51467  53.2172 215.8676 0001299  90.0801 270.0340 15.08859867228644
STARLINK-3174           
1 51468U 22010N   26083.05197328 -.00001475  00000+0 -74618-4 0  9991
2 51468  53.2168 214.6065 0001305  94.4081 265.7060 15.08844919228681
STARLINK-3182           
1 51469U 22010P   26083.07039121  .00002817  00000+0  19503-3 0  9990
2 51469  53.2162 214.5629 0001298  90.2640 269.8501 15.08838224228998
STARLINK-3415           
1 51472U 22010S   26082.64812365 -.00003245  00000+0 -18579-3 0  9995
2 51472  53.2168 216.3915 0001325  92.3044 267.8100 15.08862307228934
STARLINK-3528           
1 51714U 22016A   26082.91953358 -.00000533  00000+0 -15392-4 0  9996
2 51714  53.2158 265.2183 0001352  88.9250 271.1897 15.08840044225574
STARLINK-3533           
1 51715U 22016B   26082.77970306 -.00007544  00000+0 -45654-3 0  9995
2 51715  53.2175 265.8794 0001346  75.8918 284.2224 15.08826341226683
