[{"OBJECT_NAME":"STARLINK-3352","OBJECT_ID":"2022-005AV","EPOCH":"2026-03-24T03:10:06.606624","MEAN_MOTION":15.25767742,"ECCENTRICITY":6.524e-5,"INCLINATION":53.1941,"RA_OF_ASC_NODE":230.214,"ARG_OF_PERICENTER":341.436,"MEAN_ANOMALY":18.6615,"EPHEMERIS_TYPE":0,"CLASSIFICATION_TYPE":"U","NORAD_CAT_ID":51147,"ELEMENT_SET_NO":999,"REV_AT_EPOCH":23097,"BSTAR":0.0012091371,"MEAN_MOTION_DOT":0.00031068,"MEAN_MOTION_DDOT":0},{"OBJECT_NAME":"STARLINK-3359","OBJECT_ID":"2022-005AW","EPOCH":"2026-03-23T11:14:15.060768","MEAN_MOTION":15.09695396,"ECCENTRICITY":0.00012814,"INCLINATION":53.216,"RA_OF_ASC_NODE":247.3875,"ARG_OF_PERICENTER":142.2126,"MEAN_ANOMALY":217.8957,"EPHEMERIS_TYPE":0,"CLASSIFICATION_TYPE":"U","NORAD_CAT_ID":51148,"ELEMENT_SET_NO":999,"REV_AT_EPOCH":23067,"BSTAR":0.00033858939,"MEAN_MOTION_DOT":5.231e-5,"MEAN_MOTION_DDOT":0},{"OBJECT_NAME":"STARLINK-3360","OBJECT_ID":"2022-005AX","EPOCH":"2026-03-23T08:00:01.999872","MEAN_MOTION":15.08812715,"ECCENTRICITY":0.00013128,"INCLINATION":53.215,"RA_OF_ASC_NODE":247.6883,"ARG_OF_PERICENTER":94.2786,"MEAN_ANOMALY":70.1558,"EPHEMERIS_TYPE":0,"CLASSIFICATION_TYPE":"U","NORAD_CAT_ID":51149,"ELEMENT_SET_NO":999,"REV_AT_EPOCH":570,"BSTAR":0.0027833246,"MEAN_MOTION_DOT":0.00044254,"MEAN_MOTION_DDOT":0},{"OBJECT_NAME":"STARLINK-3357","OBJECT_ID":"2022-005AY","EPOCH":"2026-03-23T16:54:00.725184","MEAN_MOTION":15.08841249,"ECCENTRICITY":0.00012397,"INCLINATION":53.2164,"RA_OF_ASC_NODE":235.8202,"ARG_OF_PERICENTER":93.4463,"MEAN_ANOMALY":266.6671,"EPHEMERIS_TYPE":0,"CLASSIFICATION_TYPE":"U","NORAD_CAT_ID":51150,"ELEMENT_SET_NO":999,"REV_AT_EPOCH":23086,"BSTAR":-3.321359e-6,"MEAN_MOTION_DOT":-3.41e-6,"MEAN_MOTION_DDOT":0},{"OBJECT_NAME":"STARLINK-3364","OBJECT_ID":"2022-005BA","EPOCH":"2026-03-24T03:23:18.822048","MEAN_MOTION":15.08834368,"ECCENTRICITY":0.00012894,"INCLINATION":53.2164,"RA_OF_ASC_NODE":243.8609,"ARG_OF_PERICENTER":91.6084,"MEAN_ANOMALY":268.5056,"EPHEMERIS_TYPE":0,"CLASSIFICATION_TYPE":"U","NORAD_CAT_ID":51152,"ELEMENT_SET_NO":999,"REV_AT_EPOCH":23078,"BSTAR":0.00014730737,"MEAN_MOTION_DOT":2.057e-5,"MEAN_MOTION_DDOT":0},{"OBJECT_NAME":"STARLINK-3181","OBJECT_ID":"2022-010F","EPOCH":"2026-03-24T01:51:57.082464","MEAN_MOTION":15.08843418,"ECCENTRICITY":0.00013754,"INCLINATION":53.2174,"RA_OF_ASC_NODE":214.5303,"ARG_OF_PERICENTER":88.8219,"MEAN_ANOMALY":271.2931,"EPHEMERIS_TYPE":0,"CLASSIFICATION_TYPE":"U","NORAD_CAT_ID":51461,"ELEMENT_SET_NO":999,"REV_AT_EPOCH":22899,"BSTAR":7.0389394e-5,"MEAN_MOTION_DOT":8.33e-6,"MEAN_MOTION_DDOT":0},{"OBJECT_NAME":"STARLINK-3166","OBJECT_ID":"2022-010G","EPOCH":"2026-03-24T01:48:02.245536","MEAN_MOTION":15.08846462,"ECCENTRICITY":0.00012764,"INCLINATION":53.2176,"RA_OF_ASC_NODE":214.5516,"ARG_OF_PERICENTER":90.3076,"MEAN_ANOMALY":269.8063,"EPHEMERIS_TYPE":0,"CLASSIFICATION_TYPE":"U","NORAD_CAT_ID":51462,"ELEMENT_SET_NO":999,"REV_AT_EPOCH":22899,"BSTAR":2.4516002e-5,"MEAN_MOTION_DOT":1.02e-6,"MEAN_MOTION_DDOT":0},{"OBJECT_NAME":"STARLINK-3419","OBJECT_ID":"2022-010H","EPOCH":"2026-03-23T18:48:00.920736","MEAN_MOTION":15.08835185,"ECCENTRICITY":0.0001129,"INCLINATION":53.2176,"RA_OF_ASC_NODE":215.8531,"ARG_OF_PERICENTER":90.111,"MEAN_ANOMALY":270.0011,"EPHEMERIS_TYPE":0,"CLASSIFICATION_TYPE":"U","NORAD_CAT_ID":51463,"ELEMENT_SET_NO":999,"REV_AT_EPOCH":22864,"BSTAR":-3.3714856e-5,"MEAN_MOTION_DOT":-8.24e-6,"MEAN_MOTION_DDOT":0},{"OBJECT_NAME":"STARLINK-3189","OBJECT_ID":"2022-010J","EPOCH":"2026-03-24T01:36:03.481344","MEAN_MOTION":15.08840133,"ECCENTRICITY":0.00012332,"INCLINATION":53.217,"RA_OF_ASC_NODE":214.5797,"ARG_OF_PERICENTER":91.9261,"MEAN_ANOMALY":268.1872,"EPHEMERIS_TYPE":0,"CLASSIFICATION_TYPE":"U","NORAD_CAT_ID":51464,"ELEMENT_SET_NO":999,"REV_AT_EPOCH":22949,"BSTAR":2.6676703e-5,"MEAN_MOTION_DOT":1.37e-6,"MEAN_MOTION_DDOT":0},{"OBJECT_NAME":"STARLINK-3401","OBJECT_ID":"2022-010K","EPOCH":"2026-03-24T01:30:45.898272","MEAN_MOTION":15.08840779,"ECCENTRICITY":0.00012052,"INCLINATION":53.2182,"RA_OF_ASC_NODE":214.5959,"ARG_OF_PERICENTER":89.3407,"MEAN_ANOMALY":270.7723,"EPHEMERIS_TYPE":0,"CLASSIFICATION_TYPE":"U","NORAD_CAT_ID":51465,"ELEMENT_SET_NO":999,"REV_AT_EPOCH":22949,"BSTAR":-6.54301e-7,"MEAN_MOTION_DOT":-2.98e-6,"MEAN_MOTION_DDOT":0},{"OBJECT_NAME":"STARLINK-3178","OBJECT_ID":"2022-010M","EPOCH":"2026-03-23T18:42:41.795424","MEAN_MOTION":15.08859867,"ECCENTRICITY":0.00012999,"INCLINATION":53.2172,"RA_OF_ASC_NODE":215.8676,"ARG_OF_PERICENTER":90.0801,"MEAN_ANOMALY":270.034,"EPHEMERIS_TYPE":0,"CLASSIFICATION_TYPE":"U","NORAD_CAT_ID":51467,"ELEMENT_SET_NO":999,"REV_AT_EPOCH":22864,"BSTAR":-6.7107145e-5,"MEAN_MOTION_DOT":-1.356e-5,"MEAN_MOTION_DDOT":0},{"OBJECT_NAME":"STARLINK-3174","OBJECT_ID":"2022-010N","EPOCH":"2026-03-24T01:14:50.491392","MEAN_MOTION":15.08844919,"ECCENTRICITY":0.00013056,"INCLINATION":53.2168,"RA_OF_ASC_NODE":214.6065,"ARG_OF_PERICENTER":94.4081,"MEAN_ANOMALY":265.706,"EPHEMERIS_TYPE":0,"CLASSIFICATION_TYPE":"U","NORAD_CAT_ID":51468,"ELEMENT_SET_NO":999,"REV_AT_EPOCH":22868,"BSTAR":-7.4617639e-5,"MEAN_MOTION_DOT":-1.475e-5,"MEAN_MOTION_DDOT":0},{"OBJECT_NAME":"STARLINK-3182","OBJECT_ID":"2022-010P","EPOCH":"2026-03-24T01:41:21.800544","MEAN_MOTION":15.08838224,"ECCENTRICITY":0.0001298,"INCLINATION":53.2162,"RA_OF_ASC_NODE":214.5629,"ARG_OF_PERICENTER":90.264,"MEAN_ANOMALY":269.8501,"EPHEMERIS_TYPE":0,"CLASSIFICATION_TYPE":"U","NORAD_CAT_ID":51469,"ELEMENT_SET_NO":999,"REV_AT_EPOCH":22899,"BSTAR":0.00019503488,"MEAN_MOTION_DOT":2.817e-5,"MEAN_MOTION_DDOT":0},{"OBJECT_NAME":"STARLINK-3415","OBJECT_ID":"2022-010S","EPOCH":"2026-03-23T15:33:17.883360","MEAN_MOTION":15.08862307,"ECCENTRICITY":0.00013251,"INCLINATION":53.2168,"RA_OF_ASC_NODE":216.3915,"ARG_OF_PERICENTER":92.3044,"MEAN_ANOMALY":267.81,"EPHEMERIS_TYPE":0,"CLASSIFICATION_TYPE":"U","NORAD_CAT_ID":51472,"ELEMENT_SET_NO":999,"REV_AT_EPOCH":22893,"BSTAR":-0.00018579025,"MEAN_MOTION_DOT":-3.245e-5,"MEAN_MOTION_DDOT":0},{"OBJECT_NAME":"STARLINK-3528","OBJECT_ID":"2022-016A","EPOCH":"2026-03-23T22:04:07.701312","MEAN_MOTION":15.08840044,"ECCENTRICITY":0.00013526,"INCLINATION":53.2158,"RA_OF_ASC_NODE":265.2183,"ARG_OF_PERICENTER":88.925,"MEAN_ANOMALY":271.1897,"EPHEMERIS_TYPE":0,"CLASSIFICATION_TYPE":"U","NORAD_CAT_ID":51714,"ELEMENT_SET_NO":999,"REV_AT_EPOCH":22557,"BSTAR":-1.5391844e-5,"MEAN_MOTION_DOT":-5.33e-6,"MEAN_MOTION_DDOT":0},{"OBJECT_NAME":"STARLINK-3533","OBJECT_ID":"2022-016B","EPOCH":"2026-03-23T18:42:46.344384","MEAN_MOTION":15.08826341,"ECCENTRICITY":0.00013468,"INCLINATION":53.2175,"RA_OF_ASC_NODE":265.8794,"ARG_OF_PERICENTER":75.8918,"MEAN_ANOMALY":284.2224,"EPHEMERIS_TYPE":0,"CLASSIFICATION_TYPE":"U","NORAD_CAT_ID":51715,"ELEMENT_SET_NO":999,"REV_AT_EPOCH":22668,"BSTAR":-0.00045653943,"MEAN_MOTION_DOT":-7.544e-5,"MEAN_MOTION_DDOT":0}]
